SKYSAT-C1               
1 41601U 16040C   26169.06308651  .00006801  00000+0  19419-3 0  9997
2 41601  96.9555 200.7355 0003402  56.2857 303.8712 15.36313451558001
LAPAN-A3                
1 41603U 16040E   26169.62708183  .00002781  00000+0  89172-4 0  9992
2 41603  97.1489 165.7254 0010720  20.9948 339.1733 15.33112350555037
GAOFEN-3                
1 41727U 16049A   26169.61029293 -.00000002  00000+0  12454-4 0  9999
2 41727  98.4005 177.3750 0001414  97.5049 262.6301 14.42215643518852
SKYSAT-C4               
1 41771U 16058B   26169.04292709  .00013329  00000+0  25123-3 0  9990
2 41771  96.9168 190.7793 0001464 136.1487 223.9881 15.48608666545605
SKYSAT-C5               
1 41772U 16058C   26169.60378842  .00006123  00000+0  18554-3 0  9990
2 41772  97.0465 210.1811 0000967 302.7268  57.3883 15.34486954543968
SKYSAT-C2               
1 41773U 16058D   26169.03805239  .00009950  00000+0  23453-3 0  9998
2 41773  97.0162 191.1010 0004617  68.9036 291.2706 15.42087351545188
SKYSAT-C3               
1 41774U 16058E   26169.56132386  .00019303  00000+0  31532-3 0  9993
2 41774  96.9000 200.3549 0001433  97.9171 262.2245 15.52589537546320
ALSAT-1B                
1 41785U 16059C   26169.59944772  .00000355  00000+0  63682-4 0  9998
2 41785  97.7744 178.3022 0008170 215.0510 145.0162 14.72276161520786
PATHFINDER 1            
1 41787U 16059E   26169.43189037  .00000441  00000+0  85379-4 0  9991
2 41787  97.8166 168.6520 0027893 199.5145 160.4995 14.67664399519898
SCATSAT 1               
1 41790U 16059H   26169.43061083  .00000864  00000+0  12031-3 0  9998
2 41790  98.1191 233.2096 0053429 243.3897 116.1834 14.79527761101775
GOKTURK 1A              
1 41875U 16073A   26169.61381781  .00000266  00000+0  61234-4 0  9994
2 41875  98.1251  64.2662 0001446  75.6917 284.4445 14.62775346509032
RESOURCESAT-2A          
1 41877U 16074A   26169.61920380  .00000461  00000+0  23035-3 0  9994
2 41877  98.7527 243.1122 0003323  81.0270 279.1283 14.21617958494509
CARTOSAT-2D             
1 41948U 17008A   26169.60746872  .00004464  00000+0  21519-3 0  9994
2 41948  97.4103 228.8873 0003824 228.5862 131.5044 15.19218097517790
SENTINEL-2B             
1 42063U 17013A   26169.60609289  .00000455  00000+0  19023-3 0  9992
2 42063  98.5692 244.3609 0001191  87.0156 273.1163 14.30818680484843
CARTOSAT-2E             
1 42767U 17036C   26169.62527745  .00004698  00000+0  22598-3 0  9990
2 42767  97.4273 229.4044 0002384 313.5778  46.5259 15.19267288498366
FORMOSAT-5              
1 42920U 17049A   26169.57009580  .00000116  00000+0  40511-4 0  9998
2 42920  98.2255 244.8491 0012670  80.5420 279.7207 14.50899318466870
SENTINEL-5P             
1 42969U 17064A   26169.25917095  .00000030  00000+0  35401-4 0  9999
2 42969  98.7925 111.3828 0000979  86.3824 273.7464 14.19519121449714
SKYSAT-C11              
1 42987U 17068A   26169.40613434  .00021990  00000+0  29523-3 0  9995
2 42987  97.4360 318.2897 0000578  89.5323 270.5999 15.57947880483436
SKYSAT-C10              
1 42988U 17068B   26169.33561370  .00007070  00000+0  21296-3 0  9991
2 42988  97.4513 306.1934 0001122  98.7128 261.4242 15.34653529482535
SKYSAT-C9               
1 42989U 17068C   26169.53717982  .00010720  00000+0  25661-3 0  9992
2 42989  97.4435 307.3447 0009442 128.7314 231.4778 15.41589461482964
SKYSAT-C8               
1 42990U 17068D   26169.63074359  .00008421  00000+0  23496-3 0  9998
2 42990  97.4531 306.2968 0001449  95.3737 264.7672 15.36999257482533
SKYSAT-C7               
1 42991U 17068E   26169.62440852  .00008465  00000+0  23636-3 0  9997
2 42991  97.4542 307.2799 0007188 102.5841 257.6208 15.36950162482596
SKYSAT-C6               
1 42992U 17068F   26169.64686748  .00007490  00000+0  22843-3 0  9992
2 42992  97.4576 307.2670 0004503 133.8673 226.2942 15.34231508482546
CARTOSAT-2F             
1 43111U 18004A   26169.59162760  .00003945  00000+0  19058-3 0  9999
2 43111  97.4781 229.2132 0000810 198.3203 161.8003 15.19224204467549
GAOFEN-1 02             
1 43259U 18031A   26169.58613640  .00000529  00000+0  83443-4 0  9994
2 43259  98.0525 232.1098 0003737  30.6392 329.5035 14.76458141442909
GAOFEN-1 03             
1 43260U 18031B   26169.63204427  .00000547  00000+0  85980-4 0  9999
2 43260  98.0517 232.0136 0003712  76.1243 284.0380 14.76470881442900
GAOFEN-1 04             
1 43262U 18031D   26169.60777346  .00001073  00000+0  16175-3 0  9997
2 43262  98.0525 232.1804 0002196  75.2764 284.8689 14.76437529442897
SENTINEL-3B             
1 43437U 18039A   26169.59230743  .00000077  00000+0  49671-4 0  9993
2 43437  98.6249 237.1045 0000722  91.3758 268.7505 14.26735069424328
GAOFEN-5 01             
1 43461U 18043A   26169.36332528  .00000264  00000+0  64489-4 0  9996
2 43461  98.4569 140.9742 0003030  81.4533 278.7010 14.60606295431864
GAOFEN-6                
1 43484U 18048A   26169.29089723  .00002342  00000+0  34220-3 0  9992
2 43484  97.9439 232.0243 0011886 162.1664 197.9965 14.76618754433557
