OBJECT_NAME,OBJECT_ID,EPOCH,MEAN_MOTION,ECCENTRICITY,INCLINATION,RA_OF_ASC_NODE,ARG_OF_PERICENTER,MEAN_ANOMALY,EPHEMERIS_TYPE,CLASSIFICATION_TYPE,NORAD_CAT_ID,ELEMENT_SET_NO,REV_AT_EPOCH,BSTAR,MEAN_MOTION_DOT,MEAN_MOTION_DDOT
SKYSAT-C1,2016-040C,2026-06-18T01:30:50.674464,15.36313451,.00034024,96.9555,200.7355,56.2857,303.8712,0,U,41601,999,55800,.19418645E-3,.6801E-4,0
LAPAN-A3,2016-040E,2026-06-18T15:02:59.870112,15.33112350,.00107204,97.1489,165.7254,20.9948,339.1733,0,U,41603,999,55503,.89171906E-4,.2781E-4,0
GAOFEN-3,2016-049A,2026-06-18T14:38:49.309152,14.42215643,.00014143,98.4005,177.3750,97.5049,262.6301,0,U,41727,999,51885,.12453767E-4,-.2E-7,0
SKYSAT-C4,2016-058B,2026-06-18T01:01:48.900576,15.48608666,.0001464,96.9168,190.7793,136.1487,223.9881,0,U,41771,999,54560,.25122705E-3,.13329E-3,0
SKYSAT-C5,2016-058C,2026-06-18T14:29:27.319488,15.34486954,.00009676,97.0465,210.1811,302.7268,57.3883,0,U,41772,999,54396,.18553725E-3,.6123E-4,0
SKYSAT-C2,2016-058D,2026-06-18T00:54:47.726496,15.42087351,.00046179,97.0162,191.1010,68.9036,291.2706,0,U,41773,999,54518,.23453008E-3,.995E-4,0
SKYSAT-C3,2016-058E,2026-06-18T13:28:18.381504,15.52589537,.00014338,96.9000,200.3549,97.9171,262.2245,0,U,41774,999,54632,.31532366E-3,.19303E-3,0
ALSAT-1B,2016-059C,2026-06-18T14:23:12.283008,14.72276161,.00081706,97.7744,178.3022,215.0510,145.0162,0,U,41785,999,52078,.63681814E-4,.355E-5,0
PATHFINDER 1,2016-059E,2026-06-18T10:21:55.327968,14.67664399,.00278939,97.8166,168.6520,199.5145,160.4995,0,U,41787,999,51989,.85378792E-4,.441E-5,0
SCATSAT 1,2016-059H,2026-06-18T10:20:04.775712,14.79527761,.00534297,98.1191,233.2096,243.3897,116.1834,0,U,41790,999,10177,.12030825E-3,.864E-5,0
GOKTURK 1A,2016-073A,2026-06-18T14:43:53.858784,14.62775346,.00014463,98.1251,64.2662,75.6917,284.4445,0,U,41875,999,50903,.61233699E-4,.266E-5,0
RESOURCESAT-2A,2016-074A,2026-06-18T14:51:39.208320,14.21617958,.00033239,98.7527,243.1122,81.0270,279.1283,0,U,41877,999,49450,.23034583E-3,.461E-5,0
CARTOSAT-2D,2017-008A,2026-06-18T14:34:45.297408,15.19218097,.00038249,97.4103,228.8873,228.5862,131.5044,0,U,41948,999,51779,.21518673E-3,.4464E-4,0
SENTINEL-2B,2017-013A,2026-06-18T14:32:46.425696,14.30818680,.00011911,98.5692,244.3609,87.0156,273.1163,0,U,42063,999,48484,.19022591E-3,.455E-5,0
CARTOSAT-2E,2017-036C,2026-06-18T15:00:23.971680,15.19267288,.00023841,97.4273,229.4044,313.5778,46.5259,0,U,42767,999,49836,.22598399E-3,.4698E-4,0
FORMOSAT-5,2017-049A,2026-06-18T13:40:56.277120,14.50899318,.00126704,98.2255,244.8491,80.5420,279.7207,0,U,42920,999,46687,.40511138E-4,.116E-5,0
SENTINEL-5P,2017-064A,2026-06-18T06:13:12.370080,14.19519121,.00009791,98.7925,111.3828,86.3824,273.7464,0,U,42969,999,44971,.35401033E-4,.3E-6,0
SKYSAT-C11,2017-068A,2026-06-18T09:44:50.006976,15.57947880,.00005783,97.4360,318.2897,89.5323,270.5999,0,U,42987,999,48343,.29523107E-3,.2199E-3,0
SKYSAT-C10,2017-068B,2026-06-18T08:03:17.023680,15.34653529,.00011222,97.4513,306.1934,98.7128,261.4242,0,U,42988,999,48253,.21295913E-3,.707E-4,0
SKYSAT-C9,2017-068C,2026-06-18T12:53:32.336448,15.41589461,.00094428,97.4435,307.3447,128.7314,231.4778,0,U,42989,999,48296,.25661088E-3,.1072E-3,0
SKYSAT-C8,2017-068D,2026-06-18T15:08:16.246176,15.36999257,.00014494,97.4531,306.2968,95.3737,264.7672,0,U,42990,999,48253,.23496045E-3,.8421E-4,0
SKYSAT-C7,2017-068E,2026-06-18T14:59:08.896128,15.36950162,.00071889,97.4542,307.2799,102.5841,257.6208,0,U,42991,999,48259,.23636159E-3,.8465E-4,0
SKYSAT-C6,2017-068F,2026-06-18T15:31:29.350272,15.34231508,.0004503,97.4576,307.2670,133.8673,226.2942,0,U,42992,999,48254,.22842667E-3,.749E-4,0
CARTOSAT-2F,2018-004A,2026-06-18T14:11:56.624640,15.19224204,.000081,97.4781,229.2132,198.3203,161.8003,0,U,43111,999,46754,.19058394E-3,.3945E-4,0
GAOFEN-1 02,2018-031A,2026-06-18T14:04:02.184960,14.76458141,.00037376,98.0525,232.1098,30.6392,329.5035,0,U,43259,999,44290,.83442501E-4,.529E-5,0
GAOFEN-1 03,2018-031B,2026-06-18T15:10:08.624928,14.76470881,.00037128,98.0517,232.0136,76.1243,284.0380,0,U,43260,999,44290,.85980144E-4,.547E-5,0
GAOFEN-1 04,2018-031D,2026-06-18T14:35:11.626944,14.76437529,.00021963,98.0525,232.1804,75.2764,284.8689,0,U,43262,999,44289,.16174583E-3,.1073E-4,0
SENTINEL-3B,2018-039A,2026-06-18T14:12:55.361952,14.26735069,.00007222,98.6249,237.1045,91.3758,268.7505,0,U,43437,999,42432,.49671329E-4,.77E-6,0
GAOFEN-5 01,2018-043A,2026-06-18T08:43:11.304192,14.60606295,.00030302,98.4569,140.9742,81.4533,278.7010,0,U,43461,999,43186,.64488701E-4,.264E-5,0
GAOFEN-6,2018-048A,2026-06-18T06:58:53.520672,14.76618754,.00118867,97.9439,232.0243,162.1664,197.9965,0,U,43484,999,43355,.34220076E-3,.2342E-4,0
